OBJECT_NAME,OBJECT_ID,EPOCH,MEAN_MOTION,ECCENTRICITY,INCLINATION,RA_OF_ASC_NODE,ARG_OF_PERICENTER,MEAN_ANOMALY,EPHEMERIS_TYPE,CLASSIFICATION_TYPE,NORAD_CAT_ID,ELEMENT_SET_NO,REV_AT_EPOCH,BSTAR,MEAN_MOTION_DOT,MEAN_MOTION_DDOT
EYESAT A (AO-27),1993-061C,2026-07-19T03:57:13.631904,14.30949715,.00085393,98.6864,267.5640,14.7402,345.4028,0,U,22825,999,71157,.27887679E-4,.29E-6,0
ITAMSAT (IO-26),1993-061D,2026-07-19T03:13:50.092320,14.31377398,.00087134,98.6813,267.4547,357.6631,2.4509,0,U,22826,999,71188,.26963835E-4,.27E-6,0
RADIO ROSTO (RS15),1994-085A,2026-07-19T05:18:51.564096,11.27583551,.01570732,64.8144,251.4089,357.9682,2.0587,0,U,23439,999,29951,.12722161E-3,-.38E-6,0
JAS-2 (FO-29),1996-046B,2026-07-19T02:27:08.928288,13.53275823,.03501738,98.5218,44.5993,13.8163,347.2268,0,U,24278,999,47748,-.532005E-5,-.41E-6,0
FORTE,1997-047A,2026-07-19T05:56:08.340000,14.27956449,.00242571,69.9545,301.6047,238.4575,121.4179,0,U,24920,999,50326,.44640285E-4,.53E-6,0
TECHSAT 1B (GO-32),1998-043D,2026-07-19T05:39:17.284608,14.24433774,.00022896,99.0088,193.8054,108.9690,251.1736,0,U,25397,999,45589,.19587566E-4,-.1E-7,0
ISS (ZARYA),1998-067A,2026-07-19T04:27:19.257120,15.49047695,.00067979,51.6318,141.7399,313.2287,46.8133,0,U,25544,999,57671,.82168399E-4,.4087E-4,0
IMAGE,2000-017A,2026-07-10T09:33:22.635360,1.68666826,.74160542,94.2468,315.6762,285.1805,9.7435,0,U,26113,999,16189,0,-.42E-6,0
CLUSTER II-FM7 (SAMBA),2000-041A,2026-07-20T14:26:12.594624,0.44849809,.90917359,149.8022,56.9138,274.4937,359.4015,0,U,26410,999,2046,0,.10309E-3,-.3041949E-5
CLUSTER II-FM8 (TANGO),2000-045B,2026-07-18T22:53:05.745408,0.44423357,.90956484,150.0091,57.8386,275.2395,2.0585,0,U,26464,999,2045,0,.14907E-3,-.8976714E-5
ODIN,2001-007A,2026-07-19T01:56:26.359296,15.91757329,.0005054,97.3680,243.4023,151.8362,208.3186,0,U,26702,999,39444,.91876884E-3,.298292E-2,.35381405E-4
OMNI-M1,2001-026A,2026-07-15T12:15:20.524608,3.92402085,.00135289,44.8240,238.7352,57.8922,302.2996,0,U,26857,999,20668,0,.4E-7,0
PCSAT (NO-44),2001-043C,2026-07-19T06:54:49.665312,14.31965883,.00058705,67.0498,161.2434,266.8644,93.1786,0,U,26931,999,29504,.40156995E-4,.25E-6,0
PROBA-1,2001-049B,2026-07-19T06:16:23.893824,15.07621916,.00553048,97.9602,209.9170,16.1904,344.1073,0,U,26958,999,34845,.3567772E-4,.489E-5,0
SAUDISAT 1C (SO-50),2002-058C,2026-07-18T21:57:58.675680,14.83102458,.00744132,64.5520,30.8141,256.5934,102.6870,0,U,27607,999,26916,.63019282E-4,.381E-5,0
CORIOLIS,2003-001A,2026-07-18T23:26:38.513760,14.19952468,.00150635,98.7135,206.3773,119.1084,241.1603,0,U,27640,999,21873,.36915611E-4,.35E-6,0
CUTE-1 (CO-55),2003-031E,2026-07-18T23:59:43.619424,14.24352932,.00108657,98.6744,208.1594,92.9112,267.3310,0,U,27844,999,19620,.72663847E-4,.124E-5,0
CUBESAT XI-IV (CO-57),2003-031J,2026-07-19T00:06:08.229024,14.23635739,.00106445,98.6776,207.8508,109.4157,250.8172,0,U,27848,999,19590,.63832008E-4,.102E-5,0
MOZHAETS 4 (RS22),2003-042A,2026-07-19T08:14:27.255264,14.73517034,.00115484,98.3477,25.6122,160.2032,321.9217,0,U,27939,999,22028,.22796249E-4,.94E-6,0
