EYESAT A (AO-27)        
1 22825U 93061C   26200.16474111  .00000029  00000+0  27888-4 0  9990
2 22825  98.6864 267.5640 0008539  14.7402 345.4028 14.30949715711575
ITAMSAT (IO-26)         
1 22826U 93061D   26200.13460755  .00000027  00000+0  26964-4 0  9999
2 22826  98.6813 267.4547 0008713 357.6631   2.4509 14.31377398711883
RADIO ROSTO (RS15)      
1 23439U 94085A   26200.22143014 -.00000038  00000+0  12722-3 0  9992
2 23439  64.8144 251.4089 0157073 357.9682   2.0587 11.27583551299518
JAS-2 (FO-29)           
1 24278U 96046B   26200.10218667 -.00000041  00000+0 -53200-5 0  9990
2 24278  98.5218  44.5993 0350173  13.8163 347.2268 13.53275823477484
FORTE                   
1 24920U 97047A   26200.24731875  .00000053  00000+0  44640-4 0  9990
2 24920  69.9545 301.6047 0024257 238.4575 121.4179 14.27956449503264
TECHSAT 1B (GO-32)      
1 25397U 98043D   26200.23561672 -.00000001  00000+0  19588-4 0  9998
2 25397  99.0088 193.8054 0002289 108.9690 251.1736 14.24433774455891
ISS (ZARYA)             
1 25544U 98067A   26200.18563955  .00004087  00000+0  82168-4 0  9999
2 25544  51.6318 141.7399 0006797 313.2287  46.8133 15.49047695576716
IMAGE                   
1 26113U 00017A   26191.39817865 -.00000042  00000+0  00000+0 0  9992
2 26113  94.2468 315.6762 7416054 285.1805   9.7435  1.68666826161896
CLUSTER II-FM7 (SAMBA)  
1 26410U 00041A   26201.60153466  .00010309 -30419-5  00000+0 0  9995
2 26410 149.8022  56.9138 9091735 274.4937 359.4015  0.44849809 20468
CLUSTER II-FM8 (TANGO)  
1 26464U 00045B   26199.95353872  .00014907 -89767-5  00000+0 0  9993
2 26464 150.0091  57.8386 9095648 275.2395   2.0585  0.44423357 20454
ODIN                    
1 26702U 01007A   26200.08086064  .00298292  35381-4  91877-3 0  9998
2 26702  97.3680 243.4023 0005054 151.8362 208.3186 15.91757329394441
OMNI-M1                 
1 26857U 01026A   26196.51065422  .00000004  00000+0  00000+0 0  9998
2 26857  44.8240 238.7352 0013528  57.8922 302.2996  3.92402085206680
PCSAT (NO-44)           
1 26931U 01043C   26200.28807483  .00000025  00000+0  40157-4 0  9996
2 26931  67.0498 161.2434 0005870 266.8644  93.1786 14.31965883295046
PROBA-1                 
1 26958U 01049B   26200.26138766  .00000489  00000+0  35678-4 0  9996
2 26958  97.9602 209.9170 0055304  16.1904 344.1073 15.07621916348455
SAUDISAT 1C (SO-50)     
1 27607U 02058C   26199.91526245  .00000381  00000+0  63019-4 0  9992
2 27607  64.5520  30.8141 0074413 256.5934 102.6870 14.83102458269160
CORIOLIS                
1 27640U 03001A   26199.97683465  .00000035  00000+0  36916-4 0  9994
2 27640  98.7135 206.3773 0015063 119.1084 241.1603 14.19952468218738
CUTE-1 (CO-55)          
1 27844U 03031E   26199.99981041  .00000124  00000+0  72664-4 0  9995
2 27844  98.6744 208.1594 0010865  92.9112 267.3310 14.24352932196203
CUBESAT XI-IV (CO-57)   
1 27848U 03031J   26200.00426191  .00000102  00000+0  63832-4 0  9997
2 27848  98.6776 207.8508 0010644 109.4157 250.8172 14.23635739195908
MOZHAETS 4 (RS22)       
1 27939U 03042A   26200.34337101  .00000094  00000+0  22796-4 0  9993
2 27939  98.3477  25.6122 0011548 160.2032 321.9217 14.73517034220285
